{"fetched_at":"2026-07-18T06:27:54.277Z","source":"https://celestrak.org/NORAD/elements/gp.php?GROUP=stations&FORMAT=JSON","constellation":"tiangong","records":[{"OBJECT_NAME":"CSS (TIANHE)","OBJECT_ID":"2021-035A","EPOCH":"2026-07-17T12:32:16.126368","CLASSIFICATION_TYPE":"U","MEAN_MOTION":15.58143309,"ECCENTRICITY":0.0001921,"INCLINATION":41.4691,"RA_OF_ASC_NODE":137.7269,"ARG_OF_PERICENTER":301.5742,"MEAN_ANOMALY":58.4908,"EPHEMERIS_TYPE":0,"NORAD_CAT_ID":48274,"ELEMENT_SET_NO":999,"REV_AT_EPOCH":29790,"BSTAR":0.000018813,"MEAN_MOTION_DOT":0.00001129,"MEAN_MOTION_DDOT":0}]}
